NORAD_CAT_ID,OBJECT_NAME,OBJECT_TYPE,EPOCH,MEAN_MOTION,ECCENTRICITY,INCLINATION,RA_OF_ASC_NODE,ARG_OF_PERICENTER,MEAN_ANOMALY,BSTAR,MEAN_MOTION_DOT,MEAN_MOTION_DDOT,TLE_LINE0,TLE_LINE1,TLE_LINE2,SEMIMAJOR_AXIS,PERIOD,APOGEE,PERIGEE,DECAYED
54801.0,STARLINK-5429,PAYLOAD,2024-07-25 05:28:20,15.08841402,0.0001282,53.2163,183.3421,88.6833,271.4306,3.496e-05,2.69e-06,0.0,0 STARLINK-5429,1 54801U 22175AV  24207.22800980  .00000269  00000-0  34960-4 0  9992,2 54801  53.2163 183.3421 0001282  88.6833 271.4306 15.08841402 90488,6917.876,95.437,540.628,538.854,0.0
54801.0,STARLINK-5429,PAYLOAD,2024-07-25 22:57:34,15.08832752,0.000125,53.2165,180.0721,95.8505,264.2629,8.7087e-05,1.098e-05,0.0,0 STARLINK-5429,1 54801U 22175AV  24207.95665322  .00001098  00000-0  87087-4 0  9990,2 54801  53.2165 180.0721 0001250  95.8505 264.2629 15.08832752 90596,6917.903,95.438,540.632,538.903,0.0
54801.0,STARLINK-5429,PAYLOAD,2024-07-26 03:43:44,15.08831487,0.000124,53.2163,179.18,96.2061,263.9072,7.273e-05,8.7e-06,0.0,0 STARLINK-5429,1 54801U 22175AV  24208.15537563  .00000870  00000-0  72730-4 0  9994,2 54801  53.2163 179.1800 0001240  96.2061 263.9072 15.08831487 88467,6917.906,95.438,540.629,538.914,0.0
54801.0,STARLINK-5429,PAYLOAD,2024-07-26 05:19:07,15.08827246,0.0001434,53.2184,178.8894,100.9413,259.174,6.6223e-05,7.66e-06,0.0,0 STARLINK-5429,1 54801U 22175AV  24208.22161962  .00000766  00000-0  66223-4 0  9992,2 54801  53.2184 178.8894 0001434 100.9413 259.1740 15.08827246 90637,6917.919,95.438,540.776,538.792,0.0
54801.0,STARLINK-5429,PAYLOAD,2024-07-26 14:51:25,15.08842294,0.0001448,53.2178,177.1005,85.5075,274.6083,0.00010227,1.34e-05,0.0,0 STARLINK-5429,1 54801U 22175AV  24208.61904942  .00001340  00000-0  10227-3 0  9999,2 54801  53.2178 177.1005 0001448  85.5075 274.6083 15.08842294 88531,6917.873,95.437,540.74,538.737,0.0
54801.0,STARLINK-5429,PAYLOAD,2024-07-26 22:48:22,15.0883925,0.0001684,53.2171,175.6152,97.5524,262.566,2.5834e-06,-2.47e-06,0.0,0 STARLINK-5429,1 54801U 22175AV  24208.95025583 -.00000247  00000-0  25834-5 0  9999,2 54801  53.2171 175.6152 0001684  97.5524 262.5660 15.08839250 90745,6917.883,95.438,540.913,538.583,0.0
54801.0,STARLINK-5429,PAYLOAD,2024-07-27 05:09:54,15.08839623,0.0001633,53.2172,174.4255,94.4058,265.712,4.6306e-06,-2.14e-06,0.0,0 STARLINK-5429,1 54801U 22175AV  24209.21521568 -.00000214  00000-0  46306-5 0  9994,2 54801  53.2172 174.4255 0001633  94.4058 265.7120 15.08839623 90783,6917.882,95.438,540.876,538.617,0.0
54801.0,STARLINK-5429,PAYLOAD,2024-07-27 14:42:12,15.08847456,0.0001683,53.2169,172.6381,78.1082,282.0099,4.5375e-05,4.34e-06,0.0,0 STARLINK-5429,1 54801U 22175AV  24209.61264939  .00000434  00000-0  45375-4 0  9991,2 54801  53.2169 172.6381 0001683  78.1082 282.0099 15.08847456 90847,6917.858,95.437,540.887,538.558,0.0
54801.0,STARLINK-5429,PAYLOAD,2024-07-28 05:00:42,15.08833439,0.000143,53.2172,169.9619,82.4462,277.6693,3.3288e-05,2.42e-06,0.0,0 STARLINK-5429,1 54801U 22175AV  24210.20882008  .00000242  00000-0  33288-4 0  9998,2 54801  53.2172 169.9619 0001430  82.4462 277.6693 15.08833439 88779,6917.9,95.438,540.755,538.776,0.0
54801.0,STARLINK-5429,PAYLOAD,2024-07-29 04:51:28,15.0884066,0.0001342,53.2167,165.5053,90.3023,269.8123,5.6792e-05,6.16e-06,0.0,0 STARLINK-5429,1 54801U 22175AV  24211.20241788  .00000616  00000-0  56792-4 0  9993,2 54801  53.2167 165.5053 0001342  90.3023 269.8123 15.08840660 88922,6917.878,95.438,540.672,538.815,0.0
54801.0,STARLINK-5429,PAYLOAD,2024-07-29 20:45:20,15.08841336,0.0001416,53.2174,162.5315,88.4764,271.639,0.00011136,1.485e-05,0.0,0 STARLINK-5429,1 54801U 22175AV  24211.86481562  .00001485  00000-0  11136-3 0  9998,2 54801  53.2174 162.5315 0001416  88.4764 271.6390 15.08841336 91180,6917.876,95.437,540.721,538.762,0.0
54801.0,STARLINK-5429,PAYLOAD,2024-07-30 03:06:53,15.08823213,0.0001409,53.2174,161.3401,95.9091,264.2062,0.00030982,4.644e-05,0.0,0 STARLINK-5429,1 54801U 22175AV  24212.12978530  .00004644  00000-0  30982-3 0  9994,2 54801  53.2174 161.3401 0001409  95.9091 264.2062 15.08823213 89063,6917.932,95.439,540.771,538.822,0.0
54801.0,STARLINK-5429,PAYLOAD,2024-07-30 14:14:34,15.08848573,0.0001453,53.218,159.2587,96.3173,263.7985,0.00019254,2.778e-05,0.0,0 STARLINK-5429,1 54801U 22175AV  24212.59344975  .00002778  00000-0  19254-3 0  9990,2 54801  53.2180 159.2587 0001453  96.3173 263.7985 15.08848573 91298,6917.854,95.437,540.724,538.714,0.0
54801.0,STARLINK-5429,PAYLOAD,2024-07-30 20:36:07,15.08844136,0.0001869,53.2173,158.067,105.3841,254.7357,6.4062e-05,7.32e-06,0.0,0 STARLINK-5429,1 54801U 22175AV  24212.85841658  .00000732  00000-0  64062-4 0  9995,2 54801  53.2173 158.0670 0001869 105.3841 254.7357 15.08844136 89172,6917.868,95.437,541.026,538.44,0.0
54801.0,STARLINK-5429,PAYLOAD,2024-07-31 02:57:40,15.08838431,0.0001613,53.2184,156.879,106.1219,253.995,8.308e-06,-1.56e-06,0.0,0 STARLINK-5429,1 54801U 22175AV  24213.12338105 -.00000156  00000-0  83080-5 0  9997,2 54801  53.2184 156.8790 0001613 106.1219 253.9950 15.08838431 89214,6917.885,95.438,540.866,538.634,0.0
54801.0,STARLINK-5429,PAYLOAD,2024-07-31 20:26:54,15.08838042,0.0001509,53.218,153.6085,103.7905,256.3255,6.2935e-05,7.14e-06,0.0,0 STARLINK-5429,1 54801U 22175AV  24213.85202021  .00000714  00000-0  62935-4 0  9998,2 54801  53.2180 153.6085 0001509 103.7905 256.3255 15.08838042 91486,6917.886,95.438,540.795,538.707,0.0
54801.0,STARLINK-5429,PAYLOAD,2024-08-01 02:48:27,15.08835705,0.0001374,53.2178,152.421,93.0842,267.0307,6.5326e-05,7.52e-06,0.0,0 STARLINK-5429,1 54801U 22175AV  24214.11698295  .00000752  00000-0  65326-4 0  9999,2 54801  53.2178 152.4210 0001374  93.0842 267.0307 15.08835705 91526,6917.894,95.438,540.709,538.808,0.0
54801.0,STARLINK-5429,PAYLOAD,2024-08-01 20:17:41,15.08836286,0.0001304,53.2171,149.1495,99.6793,260.4347,0.00016429,2.327e-05,0.0,0 STARLINK-5429,1 54801U 22175AV  24214.84561923  .00002327  00000-0  16429-3 0  9995,2 54801  53.2171 149.1495 0001304  99.6793 260.4347 15.08836286 89474,6917.892,95.438,540.659,538.855,0.0
54801.0,STARLINK-5429,PAYLOAD,2024-08-02 12:11:32,15.08851266,0.0001371,53.2178,146.1752,100.0882,260.0265,0.00017639,2.521e-05,0.0,0 STARLINK-5429,1 54801U 22175AV  24215.50801026  .00002521  00000-0  17639-3 0  9990,2 54801  53.2178 146.1752 0001371 100.0882 260.0265 15.08851266 89575,6917.846,95.437,540.659,538.763,0.0
54801.0,STARLINK-5429,PAYLOAD,2024-08-03 02:30:02,15.0882269,0.0001375,53.2176,143.4999,90.1951,269.9199,-2.2238e-05,-6.42e-06,0.0,0 STARLINK-5429,1 54801U 22175AV  24216.10419820 -.00000642  00000-0 -22238-4 0  9990,2 54801  53.2176 143.4999 0001375  90.1951 269.9199 15.08822690 89669,6917.933,95.439,540.75,538.847,0.0
54801.0,STARLINK-5429,PAYLOAD,2024-08-03 12:02:20,15.0883525,0.0001518,53.2188,141.715,90.655,269.4616,2.3854e-05,9.2e-07,0.0,0 STARLINK-5429,1 54801U 22175AV  24216.50163154  .00000092  00000-0  23854-4 0  9992,2 54801  53.2188 141.7150 0001518  90.6550 269.4616 15.08835250 89723,6917.895,95.438,540.81,538.71,0.0
54801.0,STARLINK-5429,PAYLOAD,2024-08-04 03:56:11,15.0885563,0.0001548,53.2176,138.7411,90.9682,269.1487,0.00032085,4.824e-05,0.0,0 STARLINK-5429,1 54801U 22175AV  24217.16401708  .00004824  00000-0  32085-3 0  9997,2 54801  53.2176 138.7411 0001548  90.9682 269.1487 15.08855630 89826,6917.833,95.437,540.768,538.627,0.0
54801.0,STARLINK-5429,PAYLOAD,2024-08-04 11:53:06,15.08861591,0.0001443,53.2168,137.2532,92.3984,267.7174,0.00029816,4.463e-05,0.0,0 STARLINK-5429,1 54801U 22175AV  24217.49521118  .00004463  00000-0  29816-3 0  9998,2 54801  53.2168 137.2532 0001443  92.3984 267.7174 15.08861591 92037,6917.814,95.436,540.678,538.681,0.0
54801.0,STARLINK-5429,PAYLOAD,2024-08-04 18:14:40,15.08827169,0.000155,53.2171,136.0652,92.4534,267.6635,0.00013588,1.874e-05,0.0,0 STARLINK-5429,1 54801U 22175AV  24217.76019265  .00001874  00000-0  13588-3 0  9995,2 54801  53.2171 136.0652 0001550  92.4534 267.6635 15.08827169 89919,6917.92,95.438,540.857,538.712,0.0
54801.0,STARLINK-5429,PAYLOAD,2024-08-04 23:00:49,15.08842129,0.0001753,53.2163,135.1741,93.8339,266.2854,0.00022263,3.257e-05,0.0,0 STARLINK-5429,1 54801U 22175AV  24217.95890569  .00003257  00000-0  22263-3 0  9997,2 54801  53.2163 135.1741 0001753  93.8339 266.2854 15.08842129 92108,6917.874,95.437,540.952,538.526,0.0
54801.0,STARLINK-5429,PAYLOAD,2024-08-05 02:11:35,15.08859437,0.0001374,53.2158,134.5758,105.1784,254.936,0.00047089,7.218e-05,0.0,0 STARLINK-5429,1 54801U 22175AV  24218.09137771  .00007218  00000-0  47089-3 0  9996,2 54801  53.2158 134.5758 0001374 105.1784 254.9360 15.08859437 89969,6917.821,95.436,540.636,538.735,0.0
54801.0,STARLINK-5429,PAYLOAD,2024-08-05 22:51:37,15.08805965,0.0001573,53.218,130.7109,89.9691,270.1482,-0.00082176,-0.0001333,0.0,0 STARLINK-5429,1 54801U 22175AV  24218.95251187 -.00013330  00000-0 -82176-3 0  9999,2 54801  53.2180 130.7109 0001573  89.9691 270.1482 15.08805965 92257,6917.984,95.44,540.938,538.761,0.0
54801.0,STARLINK-5429,PAYLOAD,2024-08-06 03:37:46,15.08804041,0.0001416,53.216,129.816,102.5575,257.5575,-0.00039665,-6.589e-05,0.0,0 STARLINK-5429,1 54801U 22175AV  24219.15123428 -.00006589  00000-0 -39665-3 0  9991,2 54801  53.2160 129.8160 0001416 102.5575 257.5575 15.08804041 90120,6917.99,95.44,540.835,538.876,0.0
54801.0,STARLINK-5429,PAYLOAD,2024-08-06 11:34:43,15.08812454,0.0001657,53.2177,128.3335,101.0561,259.0617,0.00083263,0.00012978,0.0,0 STARLINK-5429,1 54801U 22175AV  24219.48244381  .00012978  00000-0  83263-3 0  9999,2 54801  53.2177 128.3335 0001657 101.0561 259.0617 15.08812454 92338,6917.965,95.439,540.976,538.683,0.0
54801.0,STARLINK-5429,PAYLOAD,2024-08-07 00:17:48,15.08864555,0.000136,53.2157,125.9546,89.9498,270.165,0.0023141,0.00036758,0.0,0 STARLINK-5429,1 54801U 22175AV  24220.01236117  .00036758  00000-0  23141-2 0  9998,2 54801  53.2157 125.9546 0001360  89.9498 270.1650 15.08864555 90256,6917.805,95.436,540.611,538.73,0.0
